     2.100          NAVIGATION                              RINEX VERSION / TYPE
fic2rin                                 01/23/2014 02:26:40 PGM / RUN BY / DATE
                                                            END OF HEADER
13 14  1 22  4  0  0.0  .374554656446D-04 -.386535248253D-11  .000000000000D+00
     .980000000000D+02  .850000000000D+01  .435375277985D-08  .411420920647D+00
     .368803739548D-06  .515945826191D-02  .517815351486D-05  .515364236259D+04
     .273600000000D+06  .000000000000D+00  .275475323467D+01 -.279396772385D-07
     .979013953621D+00  .287125000000D+03  .218801178240D+01 -.816391148825D-08
    -.914323799542D-10  .100000000000D+01  .177600000000D+04  .000000000000D+00
     .240000000000D+01  .000000000000D+00 -.111758708954D-07  .980000000000D+02
     .266406000000D+06  .400000000000D+01
14 14  1 22  4  0  0.0  .203816220164D-03 -.136424205266D-11  .000000000000D+00
     .940000000000D+02  .371875000000D+01  .462590697331D-08  .699687522302D+00
     .521540641785D-07  .726556940936D-02  .496394932270D-05  .515360676193D+04
     .273600000000D+06 -.109896063805D-06  .272380194624D+01  .186264514923D-07
     .971588160970D+00  .287687500000D+03 -.198640436037D+01 -.835713382245D-08
    -.154292141173D-09  .100000000000D+01  .177600000000D+04  .000000000000D+00
     .240000000000D+01  .000000000000D+00 -.884756445885D-08  .940000000000D+02
     .266406000000D+06  .400000000000D+01
15 14  1 22  4  0  0.0 -.158921815455D-03 -.204636307899D-11  .000000000000D+00
     .280000000000D+02  .628125000000D+01  .535450875107D-08  .158242785093D+00
     .419095158577D-06  .614907813724D-02  .422261655331D-05  .515363009071D+04
     .273600000000D+06  .119209289551D-06  .261600467855D+01  .000000000000D+00
     .938089674697D+00  .284625000000D+03  .234355247002D+00 -.866678957800D-08
    -.607168148133D-10  .100000000000D+01  .177600000000D+04  .000000000000D+00
     .240000000000D+01  .000000000000D+00 -.102445483208D-07  .280000000000D+02
     .266406000000D+06  .400000000000D+01
17 14  1 22  4  0  0.0 -.614044256508D-04 -.341060513165D-11  .000000000000D+00
     .580000000000D+02 -.353750000000D+02  .468126642211D-08  .835730853236D+00
    -.175833702087D-05  .904962001368D-02  .523217022419D-05  .515373103714D+04
     .273600000000D+06 -.745058059692D-07 -.449551144535D+00  .856816768646D-07
     .967725058067D+00  .285687500000D+03 -.214673074311D+01 -.839177812267D-08
    -.194293807403D-09  .100000000000D+01  .177600000000D+04  .000000000000D+00
     .240000000000D+01  .000000000000D+00 -.107102096081D-07  .580000000000D+02
     .266406000000D+06  .400000000000D+01
18 14  1 22  4  0  0.0  .297492370009D-03  .216004991671D-11  .000000000000D+00
     .370000000000D+02  .668437500000D+02  .510485549486D-08  .243870373842D+01
     .336579978466D-05  .146522141295D-01  .891089439392D-05  .515366709328D+04
     .273600000000D+06  .135973095894D-06  .159673301292D+01 -.216066837311D-06
     .925867076069D+00  .186187500000D+03 -.206330854184D+01 -.814426781287D-08
     .351443210449D-09  .100000000000D+01  .177600000000D+04  .000000000000D+00
     .240000000000D+01  .000000000000D+00 -.111758708954D-07  .370000000000D+02
     .266406000000D+06  .400000000000D+01
19 14  1 22  4  0  0.0 -.433811917901D-03 -.250111042988D-11  .000000000000D+00
     .960000000000D+02 -.408125000000D+02  .478305637635D-08 -.477486952105D-02
    -.216625630856D-05  .985829730053D-02  .491738319397D-05  .515356381416D+04
     .273600000000D+06  .707805156708D-07 -.398340668739D+00  .968575477600D-07
     .964907957684D+00  .283343750000D+03  .402187389885D+00 -.844213736319D-08
    -.167149819604D-09  .100000000000D+01  .177600000000D+04  .000000000000D+00
     .240000000000D+01  .000000000000D+00 -.149011611938D-07  .960000000000D+02
     .266406000000D+06  .400000000000D+01
20 14  1 22  4  0  0.0  .155013054609D-03  .318323145621D-11  .000000000000D+00
     .410000000000D+02  .491562500000D+02  .514950021164D-08  .293383079225D+01
     .260956585407D-05  .596810923889D-02  .884942710400D-05  .515359348679D+04
     .273600000000D+06  .465661287308D-07  .154351145925D+01 -.167638063431D-07
     .926800705998D+00  .189281250000D+03  .130369223224D+01 -.823927177017D-08
     .261082303697D-09  .100000000000D+01  .177600000000D+04  .000000000000D+00
     .240000000000D+01  .000000000000D+00 -.791624188423D-08  .410000000000D+02
     .266406000000D+06  .400000000000D+01
21 14  1 22  4  0  0.0 -.339585356414D-03 -.216004991671D-11  .000000000000D+00
     .970000000000D+02 -.520625000000D+02  .481341478376D-08 -.279550738938D+01
    -.288709998131D-05  .209586634301D-01  .105369836092D-04  .515357755470D+04
     .273600000000D+06  .270083546638D-06  .550686527607D+00 -.178813934326D-06
     .932294081882D+00  .155343750000D+03 -.207064700559D+01 -.786568478020D-08
    -.130362572982D-09  .100000000000D+01  .177600000000D+04  .000000000000D+00
     .240000000000D+01  .000000000000D+00 -.111758708954D-07  .970000000000D+02
     .266406000000D+06  .400000000000D+01
23 14  1 22  4  0  0.0  .106045044959D-04 -.329691829393D-11  .000000000000D+00
     .690000000000D+02  .153437500000D+02  .500449417156D-08 -.333014846034D+00
     .907108187675D-06  .886388134677D-02  .478886067867D-05  .515359872055D+04
     .273600000000D+06  .104308128357D-06  .266076421226D+01  .121071934700D-06
     .953152872563D+00  .281500000000D+03 -.280707296078D+01 -.852999816581D-08
    -.500020827875D-10  .100000000000D+01  .177600000000D+04  .000000000000D+00
     .240000000000D+01  .000000000000D+00 -.200234353542D-07  .690000000000D+02
     .266406000000D+06  .400000000000D+01
24 14  1 22  4  0  0.0 -.219652429223D-04 -.682121026330D-12  .000000000000D+00
     .880000000000D+02 -.154062500000D+02  .459840582777D-08 -.918287377121D+00
    -.897794961929D-06  .174805219285D-02  .901147723198D-05  .515362997246D+04
     .273600000000D+06 -.111758708954D-07 -.259607298294D+01 -.149011611938D-07
     .957942704810D+00  .204437500000D+03  .149589103855D+00 -.807783647431D-08
    -.163578242262D-09  .100000000000D+01  .177600000000D+04  .000000000000D+00
     .240000000000D+01  .000000000000D+00  .279396772385D-08  .880000000000D+02
     .266406000000D+06  .400000000000D+01
25 14  1 22  4  0  0.0  .104652717710D-04  .216004991671D-11  .000000000000D+00
     .107000000000D+03  .452812500000D+02  .421517557898D-08 -.311422829108D+01
     .225566327572D-05  .301466824021D-02  .817887485027D-05  .515366685295D+04
     .273600000000D+06 -.353902578354D-07 -.154303076924D+01 -.242143869400D-07
     .974997981631D+00  .228437500000D+03  .612330786767D+00 -.793247327650D-08
     .318227541169D-09  .100000000000D+01  .177600000000D+04  .000000000000D+00
     .240000000000D+01  .000000000000D+00  .558793544769D-08  .107000000000D+03
     .266406000000D+06  .400000000000D+01
26 14  1 22  4  0  0.0  .187268946320D-03 -.106865627458D-10  .000000000000D+00
     .460000000000D+02  .359375000000D+01  .455947563475D-08 -.370584861536D+00
     .303611159325D-06  .213600436691D-01  .534392893314D-05  .515367878914D+04
     .273600000000D+06 -.135973095894D-06  .274648350652D+01  .199303030968D-06
     .976417765571D+00  .291312500000D+03  .125934682576D+01 -.852285501112D-08
    -.828605943335D-10  .100000000000D+01  .177600000000D+04  .000000000000D+00
     .240000000000D+01  .000000000000D+00 -.605359673500D-08  .460000000000D+02
     .266406000000D+06  .400000000000D+01
27 14  1 22  4  0  0.0 -.156420283020D-04 -.181898940355D-11  .000000000000D+00
     .560000000000D+02 -.372187500000D+02  .483305845914D-08  .866784294302D+00
    -.185333192348D-05  .651748967357D-03  .467710196972D-05  .515366901588D+04
     .273600000000D+06  .316649675369D-07 -.494295883762D+00 -.335276126862D-07
     .962379087272D+00  .285906250000D+03  .157022092600D+00 -.836356266167D-08
    -.939324840936D-10  .100000000000D+01  .177600000000D+04  .000000000000D+00
     .240000000000D+01  .000000000000D+00  .186264514923D-08  .560000000000D+02
     .266406000000D+06  .400000000000D+01
28 14  1 22  4  0  0.0  .326502136886D-03  .295585778076D-11  .000000000000D+00
     .360000000000D+02  .232187500000D+02  .401409577463D-08  .167966147495D+01
     .834465026855D-06  .192891750485D-01  .737234950066D-05  .515366368294D+04
     .273600000000D+06 -.614672899246D-07 -.147757974854D+01 -.523403286934D-06
     .985358616164D+00  .252031250000D+03 -.173266871844D+01 -.782461164077D-08
     .279654505876D-09  .100000000000D+01  .177600000000D+04  .000000000000D+00
     .240000000000D+01  .000000000000D+00 -.107102096081D-07  .360000000000D+02
     .266406000000D+06  .400000000000D+01
29 14  1 22  4  0  0.0  .505126081407D-03  .295585778076D-11  .000000000000D+00
     .590000000000D+02 -.425312500000D+02  .458304804520D-08 -.251643607635D+01
    -.229477882385D-05  .158872327302D-02  .493414700031D-05  .515376241684D+04
     .273600000000D+06 -.130385160446D-07 -.440598062484D+00  .130385160446D-07
     .968430690751D+00  .287218750000D+03 -.100891286266D+01 -.816998316974D-08
    -.149291932894D-09  .100000000000D+01  .177600000000D+04  .000000000000D+00
     .240000000000D+01  .000000000000D+00 -.931322574615D-08  .590000000000D+02
     .266406000000D+06  .400000000000D+01
30 14  1 22  4  0  0.0 -.155017245561D-03  .795807864051D-12  .000000000000D+00
     .160000000000D+02  .359062500000D+02  .548522848178D-08  .181875920475D+01
     .185891985893D-05  .650150550064D-02  .820867717266D-05  .515375220299D+04
     .273600000000D+06 -.167638063431D-06 -.152529132221D+01 -.745058059692D-08
     .979781181008D+00  .231937500000D+03  .842249888300D+00 -.795854579109D-08
     .337156901081D-09  .100000000000D+01  .177600000000D+04  .000000000000D+00
     .240000000000D+01  .630000000000D+02 -.190921127796D-07  .160000000000D+02
     .266406000000D+06  .400000000000D+01
